OBJECT_NAME,OBJECT_ID,EPOCH,MEAN_MOTION,ECCENTRICITY,INCLINATION,RA_OF_ASC_NODE,ARG_OF_PERICENTER,MEAN_ANOMALY,EPHEMERIS_TYPE,CLASSIFICATION_TYPE,NORAD_CAT_ID,ELEMENT_SET_NO,REV_AT_EPOCH,BSTAR,MEAN_MOTION_DOT,MEAN_MOTION_DDOT
STARLINK-35430,2025-232R,2026-01-01T12:39:59.691744,15.30205889,.0001514,53.1602,55.8132,72.8611,287.2555,0,U,66020,999,1313,.19799E-2,.58755E-3,0
STARLINK-35432,2025-232S,2026-01-02T02:55:35.449248,15.30223477,.0001546,53.1588,53.1239,72.6784,287.4386,0,U,66021,999,1324,.12986E-2,.38329E-3,0
STARLINK-35340,2025-232T,2026-01-01T12:30:52.565472,15.30199361,.0001127,53.1599,55.7720,87.2981,272.8148,0,U,66022,999,1315,.13203E-2,.38949E-3,0
STARLINK-35394,2025-232U,2026-01-02T04:02:17.325312,15.30213891,.0001513,53.1579,52.7000,98.2436,261.8736,0,U,66023,999,1325,.19858E-2,.58949E-3,0
STARLINK-35410,2025-232V,2026-01-01T13:36:03.306816,15.30209352,.0001182,53.1599,55.3397,93.1756,266.9380,0,U,66024,999,1316,.18532E-2,.54949E-3,0
STARLINK-35280,2025-232W,2026-01-02T03:53:10.148928,15.30232164,.0001356,53.1600,52.6566,115.3013,244.8128,0,U,66025,999,1325,.18783E-2,.55745E-3,0
STARLINK-34812,2025-232X,2026-01-02T03:36:37.045728,15.30232337,.0002647,53.1592,53.2872,112.4521,247.6761,0,U,66026,999,1323,.16711E-2,.49517E-3,0
STARLINK-35341,2025-232Y,2026-01-02T03:33:33.252192,15.30267402,.000114,53.1594,53.2758,87.1199,272.9932,0,U,66027,999,1324,.16877E-2,.50068E-3,0
STARLINK-35339,2025-232Z,2026-01-02T03:15:20.647296,15.30225972,.0000842,53.1607,53.1977,80.1873,279.9223,0,U,66028,999,1324,.14983E-2,.44317E-3,0
STARLINK-35399,2025-232AA,2026-01-02T03:27:29.951424,15.30247562,.0001425,53.1595,53.2472,77.4152,282.7009,0,U,66029,999,1324,.21107E-2,.62777E-3,0
STARLINK-35431,2025-232AB,2026-01-01T13:11:54.219840,15.30210337,.0001059,53.1608,55.9406,55.5591,304.5510,0,U,66030,999,1315,.15023E-2,.44414E-3,0
STARLINK-35326,2025-232AC,2026-01-02T03:24:27.571392,15.30239616,.000155,53.1607,53.2290,100.0730,260.0446,0,U,66031,999,1324,.1924E-2,.57135E-3,0
STARLINK-35311,2025-232AD,2026-01-02T03:09:15.851808,15.30219094,.0001552,53.1603,53.1594,96.4073,263.7104,0,U,66032,999,1324,.17104E-2,.50673E-3,0
QIANFAN-91,2025-233A,2026-01-02T02:21:22.108320,13.57811316,.0015079,88.9936,60.0363,345.3773,14.6943,0,U,66033,999,1075,.22691E-3,.176E-5,0
QIANFAN-92,2025-233B,2026-01-01T15:19:51.142368,13.52250460,.0016621,88.9926,60.0666,351.7023,8.3851,0,U,66034,999,1069,.59213E-4,.51E-6,0
QIANFAN-93,2025-233C,2026-01-02T02:27:48.027744,13.54335594,.0012628,88.9873,60.0316,342.5336,17.5381,0,U,66035,999,1075,.76409E-4,.64E-6,0
QIANFAN-94,2025-233D,2026-01-02T02:45:44.239104,13.68548347,.0014503,88.9943,60.0050,342.4420,17.6238,0,U,66036,999,1077,.22084E-3,.202E-5,0
QIANFAN-95,2025-233E,2026-01-02T02:55:53.841216,14.07044053,.0013399,88.9942,59.7675,346.0043,14.0766,0,U,66037,999,1090,.23378E-3,.404E-5,0
QIANFAN-96,2025-233F,2026-01-01T12:51:13.140000,13.55795285,.0013803,88.9919,60.1033,353.5174,6.5799,0,U,66038,999,1067,.36302E-4,.37E-6,0
QIANFAN-97,2025-233G,2026-01-02T03:15:14.014368,13.57813186,.0014675,88.9941,60.0253,352.7910,7.3032,0,U,66039,999,1076,.65204E-4,.59E-6,0
QIANFAN-98,2025-233H,2026-01-02T02:55:14.130048,13.82583154,.0013828,88.9933,59.8947,344.7354,15.3396,0,U,66040,999,1083,.23612E-3,.269E-5,0
QIANFAN-99,2025-233J,2026-01-02T03:51:41.983776,13.57809474,.0014252,88.9941,60.0288,345.4783,14.5961,0,U,66041,999,1076,.21787E-3,.169E-5,0
QIANFAN-100,2025-233K,2026-01-01T11:53:12.405408,13.63441123,.0010476,88.9867,60.0094,345.1423,14.9426,0,U,66042,999,1072,.31047E-4,.37E-6,0
QIANFAN-101,2025-233L,2026-01-02T03:30:46.488096,14.26688523,.0013558,88.9940,59.6779,336.5310,23.5263,0,U,66043,999,1095,.15909E-3,.399E-5,0
QIANFAN-102,2025-233M,2026-01-02T02:11:53.903040,13.66802075,.0014017,88.9939,60.0008,346.9353,13.1442,0,U,66044,999,1077,.2341E-3,.207E-5,0
QIANFAN-103,2025-233N,2026-01-02T03:52:06.885984,13.57796477,.0013814,88.9941,60.0289,348.2856,11.7976,0,U,66045,999,1076,.20594E-3,.16E-5,0
QIANFAN-104,2025-233P,2026-01-02T03:34:00.736032,13.71547376,.001346,88.9943,59.9925,350.5351,9.5556,0,U,66046,999,1078,.2479E-3,.236E-5,0
QIANFAN-105,2025-233Q,2026-01-02T02:34:57.136800,13.90524510,.0014531,88.9945,59.9141,345.9108,14.1658,0,U,66047,999,1082,.23582E-3,.307E-5,0
QIANFAN-106,2025-233R,2026-01-02T02:23:23.799264,13.57813253,.0014202,88.9929,60.0169,342.9437,17.1239,0,U,66048,999,1076,.21052E-3,.164E-5,0
QIANFAN-107,2025-233S,2026-01-02T02:30:59.916096,13.57809821,.001395,88.9944,60.0217,347.5458,12.5350,0,U,66049,999,1076,.77003E-4,.68E-6,0
QIANFAN-108,2025-233T,2026-01-02T03:49:48.588960,13.57810412,.0014005,88.9940,60.0105,348.4739,11.6093,0,U,66050,999,1077,.61947E-4,.57E-6,0
