STARLINK-35430          
1 66020U 25232R   26001.52777421  .00058755  00000+0  19799-2 0  9998
2 66020  53.1602  55.8132 0001514  72.8611 287.2555 15.30205889 13136
STARLINK-35432          
1 66021U 25232S   26002.12193807  .00038329  00000+0  12986-2 0  9992
2 66021  53.1588  53.1239 0001546  72.6784 287.4386 15.30223477 13242
STARLINK-35340          
1 66022U 25232T   26001.52144173  .00038949  00000+0  13203-2 0  9999
2 66022  53.1599  55.7720 0001127  87.2981 272.8148 15.30199361 13152
STARLINK-35394          
1 66023U 25232U   26002.16825608  .00058949  00000+0  19858-2 0  9994
2 66023  53.1579  52.7000 0001513  98.2436 261.8736 15.30213891 13252
STARLINK-35410          
1 66024U 25232V   26001.56670494  .00054949  00000+0  18532-2 0  9993
2 66024  53.1599  55.3397 0001182  93.1756 266.9380 15.30209352 13162
STARLINK-35280          
1 66025U 25232W   26002.16192302  .00055745  00000+0  18783-2 0  9991
2 66025  53.1600  52.6566 0001356 115.3013 244.8128 15.30232164 13252
STARLINK-34812          
1 66026U 25232X   26002.15042877  .00049517  00000+0  16711-2 0  9991
2 66026  53.1592  53.2872 0002647 112.4521 247.6761 15.30232337 13230
STARLINK-35341          
1 66027U 25232Y   26002.14830153  .00050068  00000+0  16877-2 0  9999
2 66027  53.1594  53.2758 0001140  87.1199 272.9932 15.30267402 13245
STARLINK-35339          
1 66028U 25232Z   26002.13565564  .00044317  00000+0  14983-2 0  9996
2 66028  53.1607  53.1977 0000842  80.1873 279.9223 15.30225972 13249
STARLINK-35399          
1 66029U 25232AA  26002.14409666  .00062777  00000+0  21107-2 0  9994
2 66029  53.1595  53.2472 0001425  77.4152 282.7009 15.30247562 13247
STARLINK-35431          
1 66030U 25232AB  26001.54993310  .00044414  00000+0  15023-2 0  9991
2 66030  53.1608  55.9406 0001059  55.5591 304.5510 15.30210337 13157
STARLINK-35326          
1 66031U 25232AC  26002.14198578  .00057135  00000+0  19240-2 0  9991
2 66031  53.1607  53.2290 0001550 100.0730 260.0446 15.30239616 13241
STARLINK-35311          
1 66032U 25232AD  26002.13143347  .00050673  00000+0  17104-2 0  9992
2 66032  53.1603  53.1594 0001552  96.4073 263.7104 15.30219094 13243
QIANFAN-91              
1 66033U 25233A   26002.09817255  .00000176  00000+0  22691-3 0  9996
2 66033  88.9936  60.0363 0015079 345.3773  14.6943 13.57811316 10751
QIANFAN-92              
1 66034U 25233B   26001.63878637  .00000051  00000+0  59213-4 0  9990
2 66034  88.9926  60.0666 0016621 351.7023   8.3851 13.52250460 10693
QIANFAN-93              
1 66035U 25233C   26002.10263921  .00000064  00000+0  76409-4 0  9998
2 66035  88.9873  60.0316 0012628 342.5336  17.5381 13.54335594 10756
QIANFAN-94              
1 66036U 25233D   26002.11509536  .00000202  00000+0  22084-3 0  9998
2 66036  88.9943  60.0050 0014503 342.4420  17.6238 13.68548347 10778
QIANFAN-95              
1 66037U 25233E   26002.12215094  .00000404  00000+0  23378-3 0  9994
2 66037  88.9942  59.7675 0013399 346.0043  14.0766 14.07044053 10900
QIANFAN-96              
1 66038U 25233F   26001.53556875  .00000037  00000+0  36302-4 0  9998
2 66038  88.9919  60.1033 0013803 353.5174   6.5799 13.55795285 10675
QIANFAN-97              
1 66039U 25233G   26002.13557887  .00000059  00000+0  65204-4 0  9997
2 66039  88.9941  60.0253 0014675 352.7910   7.3032 13.57813186 10763
QIANFAN-98              
1 66040U 25233H   26002.12169132  .00000269  00000+0  23612-3 0  9999
2 66040  88.9933  59.8947 0013828 344.7354  15.3396 13.82583154 10831
QIANFAN-99              
1 66041U 25233J   26002.16090259  .00000169  00000+0  21787-3 0  9997
2 66041  88.9941  60.0288 0014252 345.4783  14.5961 13.57809474 10768
QIANFAN-100             
1 66042U 25233K   26001.49528247  .00000037  00000+0  31047-4 0  9991
2 66042  88.9867  60.0094 0010476 345.1423  14.9426 13.63441123 10729
QIANFAN-101             
1 66043U 25233L   26002.14637139  .00000399  00000+0  15909-3 0  9995
2 66043  88.9940  59.6779 0013558 336.5310  23.5263 14.26688523 10956
QIANFAN-102             
1 66044U 25233M   26002.09159610  .00000207  00000+0  23410-3 0  9997
2 66044  88.9939  60.0008 0014017 346.9353  13.1442 13.66802075 10776
QIANFAN-103             
1 66045U 25233N   26002.16119081  .00000160  00000+0  20594-3 0  9992
2 66045  88.9941  60.0289 0013814 348.2856  11.7976 13.57796477 10761
QIANFAN-104             
1 66046U 25233P   26002.14861963  .00000236  00000+0  24790-3 0  9990
2 66046  88.9943  59.9925 0013460 350.5351   9.5556 13.71547376 10780
QIANFAN-105             
1 66047U 25233Q   26002.10760575  .00000307  00000+0  23582-3 0  9991
2 66047  88.9945  59.9141 0014531 345.9108  14.1658 13.90524510 10827
QIANFAN-106             
1 66048U 25233R   26002.09958101  .00000164  00000+0  21052-3 0  9995
2 66048  88.9929  60.0169 0014202 342.9437  17.1239 13.57813253 10769
QIANFAN-107             
1 66049U 25233S   26002.10486014  .00000068  00000+0  77003-4 0  9998
2 66049  88.9944  60.0217 0013950 347.5458  12.5350 13.57809821 10763
QIANFAN-108             
1 66050U 25233T   26002.15959015  .00000057  00000+0  61947-4 0  9999
2 66050  88.9940  60.0105 0014005 348.4739  11.6093 13.57810412 10774
